GPS BIIR-2  (PRN 13)    
1 24876U 97035A   16055.92688872  .00000015  00000-0  00000+0 0  9993
2 24876  55.6977 245.9581 0044383 114.8881 245.5751  2.00562640136234
GPS BIIR-3  (PRN 11)    
1 25933U 99055A   16056.58158310 -.00000024  00000-0  00000+0 0  9995
2 25933  51.3222  98.6105 0159824  86.1226 311.7582  2.00565206120064
GPS BIIR-4  (PRN 20)    
1 26360U 00025A   16056.47119689 -.00000002  00000-0  00000+0 0  9999
2 26360  53.0714 174.8135 0046316  75.9785 345.3414  2.00560074115756
GPS BIIR-5  (PRN 28)    
1 26407U 00040A   16056.31114005 -.00000083  00000-0  00000+0 0  9997
2 26407  56.6988   3.7687 0201600 267.0593 315.6957  2.00569936114423
GPS BIIR-6  (PRN 14)    
1 26605U 00071A   16056.32472610  .00000016  00000-0  00000+0 0  9996
2 26605  55.2674 243.8542 0085450 248.7379 278.0286  2.00557160112025
GPS BIIR-7  (PRN 18)    
1 26690U 01004A   16056.53722494 -.00000001  00000-0  00000+0 0  9993
2 26690  53.0000 177.7872 0169329 250.8145 164.7469  2.00564080110438
GPS BIIR-8  (PRN 16)    
1 27663U 03005A   16056.47468933 -.00000082  00000-0  00000+0 0  9994
2 27663  56.7743   3.4728 0085245  17.5480  86.9028  2.00559670 95798
GPS BIIR-9  (PRN 21)    
1 27704U 03010A   16056.54480433 -.00000012  00000-0  00000+0 0  9996
2 27704  53.6122 118.0687 0233941 255.6194 220.2576  2.00564477 94592
GPS BIIR-10 (PRN 22)    
1 28129U 03058A   16056.07288249 -.00000005  00000-0  00000+0 0  9991
2 28129  52.8772 177.8504 0079008 245.0729 114.0796  2.00398555 89293
GPS BIIR-11 (PRN 19)    
1 28190U 04009A   16056.24022137 -.00000035  00000-0  00000+0 0  9990
2 28190  55.7224  64.8860 0111082  38.2165  43.8846  2.00386043 87461
GPS BIIR-12 (PRN 23)    
1 28361U 04023A   16056.57026119  .00000017  00000-0  00000+0 0  9995
2 28361  54.2356 239.4455 0106396 211.4927  25.3173  2.00557747 85551
GPS BIIR-13 (PRN 02)    
1 28474U 04045A   16056.26823478 -.00000011  00000-0  00000+0 0  9998
2 28474  54.0035 117.3560 0156546 236.7128 145.4333  2.00556937 82913
GPS BIIRM-1 (PRN 17)    
1 28874U 05038A   16056.32153998 -.00000037  00000-0  00000+0 0  9993
2 28874  55.8897  62.0742 0112040 248.9002 279.6463  2.00567295 76317
GPS BIIRM-2 (PRN 31)    
1 29486U 06042A   16056.58655713 -.00000038  00000-0  00000+0 0  9990
2 29486  55.7059 301.3636 0084145 334.1774 306.7670  2.00560804 69037
GPS BIIRM-3 (PRN 12)    
1 29601U 06052A   16056.13936392 -.00000084  00000-0  00000+0 0  9997
2 29601  56.7445   2.4111 0057553  36.9506 323.4396  2.00552057 67946
GPS BIIRM-4 (PRN 15)    
1 32260U 07047A   16055.96647543  .00000010  00000-0  00000+0 0  9992
2 32260  53.3652 236.2396 0079718  26.3534 334.0308  2.00548000 61327
GPS BIIRM-5 (PRN 29)    
1 32384U 07062A   16056.34702176 -.00000037  00000-0  00000+0 0  9993
2 32384  55.9435  62.6250 0011915 319.6442  94.0531  2.00571399 60060
GPS BIIRM-6 (PRN 07)    
1 32711U 08012A   16056.37158221 -.00000038  00000-0  00000+0 0  9993
2 32711  55.4288 300.8599 0091804 207.6457 151.9255  2.00564184 58253
GPS BIIRM-7 (PRN 04)    
1 34661U 09014A   16056.40559495 -.00000083  00000-0  00000+0 0  9994
2 34661  56.3472   0.7622 0080025  48.0070  42.9037  2.00572592 50787
GPS BIIRM-8 (PRN 05)    
1 35752U 09043A   16056.34174233  .00000000  00000-0  00000+0 0  9992
2 35752  54.2245 178.8889 0044769  24.9271 342.5374  2.00555762 47832
GPS BIIF-1  (PRN 25)    
1 36585U 10022A   16056.29754179 -.00000084  00000-0  00000+0 0  9996
2 36585  56.0739 359.5505 0050605  38.2433  46.2529  2.00578372 42075
GPS BIIF-2  (PRN 01)    
1 37753U 11036A   16056.57870234 -.00000008  00000-0  00000+0 0  9998
2 37753  55.2219 119.8373 0049866  23.9976 346.0884  2.00566086 33767
GPS BIIF-3  (PRN 24)    
1 38833U 12053A   16056.05479064 -.00000036  00000-0  00000+0 0  9998
2 38833  54.4610 298.2614 0042144  18.5561 341.6603  2.00568355 24834
GPS BIIF-4  (PRN 27)    
1 39166U 13023A   16055.91403272 -.00000041  00000-0  00000+0 0  9994
2 39166  55.5997  59.2619 0032247   7.7165 352.3587  2.00568510 20342
GPS BIIF-5  (PRN 30)    
1 39533U 14008A   16056.41127918 -.00000043  00000-0  00000+0 0  9994
2 39533  54.6144 303.4628 0017065 179.7399 180.3223  2.00568231 14730
GPS BIIF-6  (PRN 06)    
1 39741U 14026A   16056.18903147 -.00000008  00000-0  00000+0 0  9996
2 39741  55.2129 119.3688 0005578 258.5308 101.4812  2.00567161 13001
GPS BIIF-7  (PRN 09)    
1 40105U 14045A   16055.78454876  .00000013  00000-0  00000+0 0  9993
2 40105  54.7539 239.1281 0004459 121.0212 239.0103  2.00568380 11442
GPS BIIF-8  (PRN 03)    
1 40294U 14068A   16056.15159341 -.00000000  00000-0  00000+0 0  9995
2 40294  54.9633 179.5077 0003609 221.9069 138.0388  2.00553459  9670
GPS BIIF-9  (PRN 26)    
1 40534U 15013A   16056.29142591 -.00000086  00000-0  00000+0 0  9991
2 40534  55.0433 359.1295 0009278 341.5975  18.3699  2.00559038  6747
GPS BIIF-10  (PRN 08)   
1 40730U 15033A   16054.95391295 -.00000042  00000-0  00000+0 0  9991
2 40730  55.1358  59.1883 0020408 281.4579  78.3415  2.00566324  4478
GPS BIIF-11  (PRN 10)   
1 41019U 15062A   16056.00424353 -.00000002  00000-0  00000+0 0  9990
2 41019  54.9784 179.2784 0012102 204.5206 155.3946  2.00561911  2311
GPS BIIF-12  (PRN 32)   
1 41328U 16007A   16056.55830344  .00000019  00000-0  00000+0 0  9991
2 41328  55.0134 239.1526 0002106 295.7639  65.6023  1.99171406   398
